BANDWAGON-2 OBJECT D    
1 62380U 24247D   26068.52261193  .00011259  00000+0  40119-3 0  9994
2 62380  44.9954 115.6710 0003488 351.1453   8.9368 15.29076102 67732
STARLINK-36177          
1 66932U 25286H   26068.24598110  .00013910  00000+0  48089-3 0  9996
2 66932  53.1601   0.8802 0000981  65.1436 294.9667 15.30198768 15349
