[{"OBJECT_NAME":"BANDWAGON-2 OBJECT D","OBJECT_ID":"2024-247D","EPOCH":"2026-03-09T12:32:33.670752","MEAN_MOTION":15.29076102,"ECCENTRICITY":0.00034883,"INCLINATION":44.9954,"RA_OF_ASC_NODE":115.671,"ARG_OF_PERICENTER":351.1453,"MEAN_ANOMALY":8.9368,"EPHEMERIS_TYPE":0,"CLASSIFICATION_TYPE":"U","NORAD_CAT_ID":62380,"ELEMENT_SET_NO":999,"REV_AT_EPOCH":6773,"BSTAR":0.00040119131,"MEAN_MOTION_DOT":0.00011259,"MEAN_MOTION_DDOT":0},{"OBJECT_NAME":"STARLINK-36177","OBJECT_ID":"2025-286H","EPOCH":"2026-03-09T05:54:12.767040","MEAN_MOTION":15.30198768,"ECCENTRICITY":9.815e-5,"INCLINATION":53.1601,"RA_OF_ASC_NODE":0.8802,"ARG_OF_PERICENTER":65.1436,"MEAN_ANOMALY":294.9667,"EPHEMERIS_TYPE":0,"CLASSIFICATION_TYPE":"U","NORAD_CAT_ID":66932,"ELEMENT_SET_NO":999,"REV_AT_EPOCH":1534,"BSTAR":0.00048089102,"MEAN_MOTION_DOT":0.0001391,"MEAN_MOTION_DDOT":0}]
